H1 CPF 01  gfz 2021 01 03 13  5032 tandemx   
H2 1003001  6202 36605    2021 01 03 12 59 42 2021 01 08 00 00 42   120 1 1  0 0 0
H9
10 0 59218  26622.000000  0   -6271419.629   2082944.038  -1956036.627
10 0 59218  26742.000000  0   -6399714.373   2317824.314  -1074086.977
10 0 59218  26862.000000  0   -6412482.513   2513463.237   -173248.715
10 0 59218  26982.000000  0   -6310165.055   2664399.038    730636.112
10 0 59218  27102.000000  0   -6095324.612   2765982.078   1621654.665
10 0 59218  27222.000000  0   -5772587.303   2814495.963   2484112.637
10 0 59218  27342.000000  0   -5348542.674   2807258.969   3302819.149
10 0 59218  27462.000000  0   -4831605.431   2742703.686   4063361.998
10 0 59218  27582.000000  0   -4231840.712   2620432.415   4752365.817
10 0 59218  27702.000000  0   -3560760.310   2441248.267   5357727.913
10 0 59218  27822.000000  0   -2831094.476   2207161.492   5868829.709
10 0 59218  27942.000000  0   -2056542.702   1921370.600   6276719.943
10 0 59218  28062.000000  0   -1251510.243   1588218.363   6574265.876
10 0 59218  28182.000000  0    -430836.387   1213124.336   6756270.707
10 0 59218  28302.000000  0     390479.183    802495.250   6819557.989
10 0 59218  28422.000000  0    1197549.763    363615.089   6763023.521
10 0 59218  28542.000000  0    1975870.189    -95483.558   6587653.254
10 0 59218  28662.000000  0    2711576.520   -566165.750   6296508.042
10 0 59218  28782.000000  0    3391693.716  -1039355.761   5894674.450
10 0 59218  28902.000000  0    4004367.678  -1505710.822   5389181.285
10 0 59218  29022.000000  0    4539076.047  -1955805.292   4788881.916
10 0 59218  29142.000000  0    4986814.705  -2380320.687   4104305.454
10 0 59218  29262.000000  0    5340258.188  -2770239.055   3347476.914
10 0 59218  29382.000000  0    5593887.879  -3117034.930   2531706.337
10 0 59218  29502.000000  0    5744083.567  -3412860.731   1671352.878
10 0 59218  29622.000000  0    5789178.740  -3650722.541    781568.621
10 0 59218  29742.000000  0    5729476.156  -3824640.397   -121975.718
10 0 59218  29862.000000  0    5567224.068  -3929789.264  -1023374.720
10 0 59218  29982.000000  0    5306552.341  -3962616.702  -1906778.160
10 0 59218  30102.000000  0    4953370.769  -3920933.787  -2756677.485
10 0 59218  30222.000000  0    4515232.719  -3803978.747  -3558183.440
10 0 59218  30342.000000  0    4001167.992  -3612450.902  -4297289.409
10 0 59218  30462.000000  0    3421489.724  -3348515.047  -4961114.621
10 0 59218  30582.000000  0    2787580.666  -3015775.978  -5538123.275
10 0 59218  30702.000000  0    2111664.813  -2619225.820  -6018315.282
10 0 59218  30822.000000  0    1406570.173  -2165166.487  -6393389.236
10 0 59218  30942.000000  0     685484.869  -1661106.146  -6656876.664
10 0 59218  31062.000000  0     -38287.887  -1115632.591  -6804242.558
10 0 59218  31182.000000  0    -751570.729   -538267.698  -6832954.057
10 0 59218  31302.000000  0   -1441545.975     60695.570  -6742518.748
10 0 59218  31422.000000  0   -2095980.825    670372.233  -6534491.661
10 0 59218  31542.000000  0   -2703439.045   1279477.820  -6212451.128
10 0 59218  31662.000000  0   -3253477.013   1876531.910  -5781944.173
10 0 59218  31782.000000  0   -3736822.950   2450070.179  -5250402.010
10 0 59218  31902.000000  0   -4145537.034   2988862.711  -4627023.664
10 0 59218  32022.000000  0   -4473147.409   3482133.679  -3922626.806
10 0 59218  32142.000000  0   -4714758.532   3919778.165  -3149469.761
10 0 59218  32262.000000  0   -4867131.451   4292572.343  -2321045.790
10 0 59218  32382.000000  0   -4928732.442   4592370.866  -1451851.161
10 0 59218  32502.000000  0   -4899749.083   4812287.741   -557131.776
10 0 59218  32622.000000  0   -4782071.771   4946855.281    347388.741
10 0 59218  32742.000000  0   -4579239.605   4992156.384   1245792.632
10 0 59218  32862.000000  0   -4296353.782   4945925.305   2122257.836
10 0 59218  32982.000000  0   -3939957.172   4807614.736   2961346.404
10 0 59218  33102.000000  0   -3517885.479   4578427.839   3748283.826
10 0 59218  33222.000000  0   -3039094.780   4261314.995   4469224.219
10 0 59218  33342.000000  0   -2513469.497   3860935.600   5111497.130
10 0 59218  33462.000000  0   -1951614.671   3383585.092   5663830.454
10 0 59218  33582.000000  0   -1364638.322   2837089.795   6116545.271
10 0 59218  33702.000000  0    -763928.768   2230672.178   6461719.865
10 0 59218  33822.000000  0    -160933.227   1574790.498   6693320.814
10 0 59218  33942.000000  0     433059.822    880955.945   6807303.489
10 0 59218  34062.000000  0    1007131.683    161529.270   6801677.598
10 0 59218  34182.000000  0    1550932.957   -570498.505   6676539.851
10 0 59218  34302.000000  0    2054869.494  -1301740.221   6434073.183
10 0 59218  34422.000000  0    2510271.726  -2018656.535   6078511.328
10 0 59218  34542.000000  0    2909545.746  -2707807.045   5616070.421
10 0 59218  34662.000000  0    3246302.650  -3356103.871   5054845.598
10 0 59218  34782.000000  0    3515463.595  -3951063.384   4404675.264
10 0 59218  34902.000000  0    3713339.970  -4481051.486   3676973.620
10 0 59218  35022.000000  0    3837685.234  -4935517.223   2884532.348
10 0 59218  35142.000000  0    3887717.544  -5305209.030   2041295.610
10 0 59218  35262.000000  0    3864112.551  -5582368.425   1162111.376
10 0 59218  35382.000000  0    3768965.806  -5760895.593    262463.832
10 0 59218  35502.000000  0    3605726.420  -5836482.768   -641805.914
10 0 59218  35622.000000  0    3379103.398  -5806713.637  -1534788.240
10 0 59218  35742.000000  0    3094945.003  -5671122.734  -2400793.621
10 0 59218  35862.000000  0    2760097.433  -5431216.414  -3224634.915
10 0 59218  35982.000000  0    2382244.394  -5090453.347  -3991898.694
10 0 59218  36102.000000  0    1969732.236  -4654185.975  -4689197.825
10 0 59218  36222.000000  0    1531386.462  -4129565.846  -5304400.649
10 0 59218  36342.000000  0    1076324.979  -3525416.270  -5826834.354
10 0 59218  36462.000000  0     613770.447  -2852075.807  -6247460.179
10 0 59218  36582.000000  0     152865.679  -2121215.963  -6559018.587
10 0 59218  36702.000000  0    -297503.494  -1345636.196  -6756143.460
10 0 59218  36822.000000  0    -728874.726   -539040.405  -6835445.093
10 0 59218  36942.000000  0   -1133363.426    284201.762  -6795561.771
10 0 59218  37062.000000  0   -1503803.422   1109304.580  -6637179.629
10 0 59218  37182.000000  0   -1833870.880   1921325.024  -6363022.046
10 0 59218  37302.000000  0   -2118190.098   2705426.424  -5977808.212
10 0 59218  37422.000000  0   -2352421.253   3447145.489  -5488181.638
10 0 59218  37542.000000  0   -2533327.177   4132657.674  -4902606.529
10 0 59218  37662.000000  0   -2658819.356   4749037.427  -4231233.188
10 0 59218  37782.000000  0   -2727980.839   5284507.238  -3485731.229
10 0 59218  37902.000000  0   -2741064.814   5728668.836  -2679094.520
10 0 59218  38022.000000  0   -2699469.866   6072714.760  -1825421.527
10 0 59218  38142.000000  0   -2605691.291   6309613.729   -939669.581
10 0 59218  38262.000000  0   -2463249.093   6434261.577    -37390.803
10 0 59218  38382.000000  0   -2276595.836   6443599.381    865544.853
10 0 59218  38502.000000  0   -2051003.460   6336690.856   1753239.984
10 0 59218  38622.000000  0   -1792431.628   6114752.683   2610060.245
10 0 59218  38742.000000  0   -1507383.332   5781141.824   3420917.408
10 0 59218  38862.000000  0   -1202751.718   5341300.875   4171540.664
10 0 59218  38982.000000  0    -885661.850   4802662.633   4848732.270
10 0 59218  39102.000000  0    -563308.727   4174514.311   5440601.335
10 0 59218  39222.000000  0    -242798.176   3467828.378   5936768.981
10 0 59218  39342.000000  0      69005.328   2695062.636   6328547.030
10 0 59218  39462.000000  0     365622.265   1869933.587   6609083.741
10 0 59218  39582.000000  0     641090.100   1007168.942   6773478.050
10 0 59218  39702.000000  0     890081.097    122242.221   6818859.274
10 0 59218  39822.000000  0    1108003.990   -768903.674   6744434.018
10 0 59218  39942.000000  0    1291088.159  -1650143.306   6551500.292
10 0 59218  40062.000000  0    1436449.088  -2505460.021   6243426.560
10 0 59218  40182.000000  0    1542133.975  -3319238.037   5825597.025
10 0 59218  40302.000000  0    1607146.289  -4076550.247   5305322.075
10 0 59218  40422.000000  0    1631449.706  -4763434.860   4691715.243
10 0 59218  40542.000000  0    1615951.916  -5367158.389   3995540.450
10 0 59218  40662.000000  0    1562467.773  -5876461.761   3229027.433
10 0 59218  40782.000000  0    1473661.537  -6281779.227   2405656.473
10 0 59218  40902.000000  0    1352970.256  -6575426.277   1539920.376
10 0 59218  41022.000000  0    1204510.004  -6751754.216    647065.882
10 0 59218  41142.000000  0    1032966.967  -6807265.330   -257181.633
10 0 59218  41262.000000  0     843474.617  -6740685.728  -1156905.301
10 0 59218  41382.000000  0     641481.635  -6552989.692  -2036287.449
10 0 59218  41502.000000  0     432615.256  -6247378.387  -2879894.486
10 0 59218  41622.000000  0     222542.839  -5829216.331  -3672952.341
10 0 59218  41742.000000  0      16834.511  -5305925.701  -4401607.591
10 0 59218  41862.000000  0    -179169.702  -4686840.945  -5053167.289
10 0 59218  41982.000000  0    -360484.619  -3983030.333  -5616313.766
10 0 59218  42102.000000  0    -522593.999  -3207087.915  -6081292.587
10 0 59218  42222.000000  0    -661551.420  -2372900.978  -6440070.677
10 0 59218  42342.000000  0    -774066.642  -1495397.963  -6686463.526
10 0 59218  42462.000000  0    -857575.995   -590282.247  -6816231.179
10 0 59218  42582.000000  0    -910295.654    326245.283  -6827143.628
10 0 59218  42702.000000  0    -931256.920   1237769.723  -6719013.646
10 0 59218  42822.000000  0    -920323.559   2127948.351  -6493699.605
10 0 59218  42942.000000  0    -878190.871   2980796.088  -6155077.262
10 0 59218  43062.000000  0    -806366.107   3780968.141  -5708981.745
99
